DMSP 5D-3 F16 (USA 172) 
1 28054U 03048A   26176.22990807 -.00000013  00000+0  16885-4 0  9999
2 28054  98.9888 200.1114 0008050 120.0404 307.9135 14.14483490170626
METEOSAT-9 (MSG-2)      
1 28912U 05049B   26174.98123363  .00000123  00000+0  00000+0 0  9999
2 28912   9.3770  54.1031 0001969 353.1207 263.8503  1.00276111  7069
DMSP 5D-3 F17 (USA 191) 
1 29522U 06050A   26176.16007058  .00000015  00000+0  29966-4 0  9991
2 29522  98.7378 182.5670 0010859  38.6062 321.5886 14.14993779 13552
FENGYUN 3A              
1 32958U 08026A   26175.09568399  .00000041  00000+0  39856-4 0  9992
2 32958  98.6884 115.7997 0009804 105.7515 254.4743 14.19572310936387
GOES 14                 
1 35491U 09033A   26175.91055009 -.00000310  00000+0  00000+0 0  9990
2 35491   1.7107  82.9596 0002175  17.1878 278.0393  1.00108945  6664
DMSP 5D-3 F18 (USA 210) 
1 35951U 09057A   26176.20268720  .00000252  00000+0  15336-3 0  9992
2 35951  98.9040 156.9544 0010130 224.2658 135.7706 14.14901158860729
EWS-G2 (GOES 15)        
1 36411U 10008A   26176.01066830  .00000029  00000+0  00000+0 0  9999
2 36411   1.2993  82.7471 0005214  42.2541 215.5751  1.00267909 59712
COMS 1                  
1 36744U 10032A   26174.95395442  .00000083  00000+0  00000+0 0  9990
2 36744   4.8229  75.2796 0011845  12.3938 214.3110  0.99165102 51159
FENGYUN 3B              
1 37214U 10059A   26176.22802153 -.00000307  00000+0 -13547-3 0  9991
2 37214  98.9619 222.2767 0022380 161.1688 279.0929 14.14841357808568
SUOMI NPP               
1 37849U 11061A   26176.16449264  .00000059  00000+0  49106-4 0  9995
2 37849  98.7954 116.9860 0001079 344.8503  15.2641 14.19518945759579
METEOSAT-10 (MSG-3)     
1 38552U 12035B   26175.95462669 -.00000001  00000+0  00000+0 0  9992
2 38552   4.6902  60.9889 0001719   6.8463 189.1353  1.00268164 50936
METOP-B                 
1 38771U 12049A   26176.21420395  .00000090  00000+0  61053-4 0  9997
2 38771  98.6500 227.5532 0001731 356.6267   3.4898 14.21441342714403
INSAT-3D                
1 39216U 13038B   26175.98033130 -.00000331  00000+0  00000+0 0  9990
2 39216   1.9466  82.4530 0001095 358.8565 314.2526  1.00272630 47157
FENGYUN 3C              
1 39260U 13052A   26176.17126082  .00000085  00000+0  64350-4 0  9994
2 39260  98.4982 149.6796 0014784   5.3555 354.7775 14.15756721659693
METEOR-M 2              
1 40069U 14037A   26176.24045078  .00000121  00000+0  74397-4 0  9993
2 40069  98.5116 151.6934 0006411  24.2379 335.9100 14.21463694620468
HIMAWARI-8              
1 40267U 14060A   26175.91124344 -.00000267  00000+0  00000+0 0  9993
2 40267   0.0186 301.1639 0001493 154.6745 285.9169  1.00271080 42834
FENGYUN 2G              
1 40367U 14090A   26174.90415929 -.00000299  00000+0  00000+0 0  9992
2 40367   5.6568  72.7393 0003593 152.9330 111.5572  1.00269968 42061
METEOSAT-11 (MSG-4)     
1 40732U 15034A   26176.17039399  .00000069  00000+0  00000+0 0  9995
2 40732   3.2206  71.0589 0002283 347.1453 285.9137  1.00265566  7297
ELEKTRO-L 2             
1 41105U 15074A   26174.95372752 -.00000116  00000+0  00000+0 0  9995
2 41105   6.7110  70.4435 0000765 277.7123 252.7626  1.00271133 38579
SENTINEL-3A             
1 41335U 16011A   26176.14124164  .00000091  00000+0  55713-4 0  9994
2 41335  98.6246 243.4106 0001430  97.5185 262.6158 14.26734698539193
INSAT-3DR               
1 41752U 16054A   26176.03289008 -.00000068  00000+0  00000+0 0  9990
2 41752   0.1260  86.2772 0010125 187.2361  85.4719  1.00272289 35899
HIMAWARI-9              
1 41836U 16064A   26175.91124344  .00000000  00000+0  00000+0 0  9996
2 41836   0.0218  27.4399 0001195  85.6207 268.8113  1.00269384 35283
GOES 16                 
1 41866U 16071A   26176.14776824 -.00000082  00000+0  00000+0 0  9990
2 41866   0.3618  85.5326 0000527   2.1377 134.1199  1.00272015 35181
FENGYUN 4A              
1 41882U 16077A   26175.97911795 -.00000350  00000+0  00000+0 0  9990
2 41882   2.3433  80.2064 0008304 152.5076 156.5206  1.00265220 35002
CYGFM05                 
1 41884U 16078A   26174.46375310  .00017439  00000+0  23445-3 0  9990
2 41884  34.9559 219.0187 0007806 210.3577 149.6696 15.56903024529738
CYGFM04                 
1 41885U 16078B   26175.30959322  .00024447  00000+0  27165-3 0  9996
2 41885  34.9309 180.7447 0007308 255.3252 104.6663 15.61852901530113
CYGFM02                 
1 41886U 16078C   26175.29651564  .00030186  00000+0  29696-3 0  9990
2 41886  34.9389 175.1586 0008285 257.1230 102.8571 15.64902406530280
CYGFM01                 
1 41887U 16078D   26174.51380505  .00018414  00000+0  24119-3 0  9994
2 41887  34.9389 219.6930 0007547 205.2094 154.8263 15.57590328529696
CYGFM08                 
1 41888U 16078E   26174.46238074  .00020586  00000+0  24304-3 0  9991
2 41888  34.9419 199.4467 0009047 233.8204 126.1684 15.60291307529955
CYGFM07                 
1 41890U 16078G   26175.31681062  .00023368  00000+0  27437-3 0  9999
2 41890  34.9431 182.0924 0007675 255.1399 104.8477 15.60432522530114
CYGFM03                 
1 41891U 16078H   26175.22387308  .00022909  00000+0  26918-3 0  9999
2 41891  34.9385 184.6465 0007284 243.0211 116.9770 15.60419928530076
